[
    {
        "name": "à¶‡à·†à·Šà¶œà¶±à·’à·ƒà·Šà¶®à·à¶±à¶º",
        "flag": "ğŸ‡¦ğŸ‡«",
        "code": "AF",
        "dial_code": "+93"
    },
    {
        "name": "à¶‡à¶½à·Šà¶¶à·šà¶±à·’à¶ºà·à·€",
        "flag": "ğŸ‡¦ğŸ‡±",
        "code": "AL",
        "dial_code": "+355"
    },
    {
        "name": "à¶‡à¶½à·Šà¶¢à·“à¶»à·’à¶ºà·à·€",
        "flag": "ğŸ‡©ğŸ‡¿",
        "code": "DZ",
        "dial_code": "+213"
    },
    {
        "name": "à¶‡à¶±à·Šà¶©à·à¶»à·",
        "flag": "ğŸ‡¦ğŸ‡©",
        "code": "AD",
        "dial_code": "+376"
    },
    {
        "name": "à¶‡à¶±à·Šà¶œà·à¶½à·",
        "flag": "ğŸ‡¦ğŸ‡´",
        "code": "AO",
        "dial_code": "+244"
    },
    {
        "name": "à¶†à¶»à·Šà¶¢à¶±à·Šà¶§à·’à¶±à·à·€",
        "flag": "ğŸ‡¦ğŸ‡·",
        "code": "AR",
        "dial_code": "+54"
    },
    {
        "name": "à¶†à¶»à·Šà¶¸à·šà¶±à·’à¶ºà·à·€",
        "flag": "ğŸ‡¦ğŸ‡²",
        "code": "AM",
        "dial_code": "+374"
    },
    {
        "name": "à¶•à·ƒà·Šà¶§à·Šâ€à¶»à·šà¶½à·’à¶ºà·à·€",
        "flag": "ğŸ‡¦ğŸ‡º",
        "code": "AU",
        "dial_code": "+61"
    },
    {
        "name": "à¶”à·ƒà·Šà¶§à·Šâ€à¶»à·’à¶ºà·à·€",
        "flag": "ğŸ‡¦ğŸ‡¹",
        "code": "AT",
        "dial_code": "+43"
    },
    {
        "name": "à¶…à·ƒà¶»à·Šà¶¶à¶ºà·’à¶¢à·à¶±à¶º",
        "flag": "ğŸ‡¦ğŸ‡¿",
        "code": "AZ",
        "dial_code": "+994"
    },
    {
        "name": "à¶¶à·„à¶¸à·à·ƒà·Š",
        "flag": "ğŸ‡§ğŸ‡¸",
        "code": "BS",
        "dial_code": "+1242"
    },
    {
        "name": "à¶¶à·„à¶»à·šà¶±à·Š",
        "flag": "ğŸ‡§ğŸ‡­",
        "code": "BH",
        "dial_code": "+973"
    },
    {
        "name": "à¶¶à¶‚à¶œà·Šà¶½à·à¶¯à·šà·à¶º",
        "flag": "ğŸ‡§ğŸ‡©",
        "code": "BD",
        "dial_code": "+880"
    },
    {
        "name": "à¶¶à·à¶¶à¶©à·à·ƒà·Š",
        "flag": "ğŸ‡§ğŸ‡§",
        "code": "BB",
        "dial_code": "+1246"
    },
    {
        "name": "à¶¶à·™à¶½à¶»à·”à·ƒà·Š",
        "flag": "ğŸ‡§ğŸ‡¾",
        "code": "BY",
        "dial_code": "+375"
    },
    {
        "name": "à¶¶à·™à¶½à·Šà¶¢à·’à¶ºà¶¸",
        "flag": "ğŸ‡§ğŸ‡ª",
        "code": "BE",
        "dial_code": "+32"
    },
    {
        "name": "à¶¶à·™à¶½à·“à·ƒà·Š",
        "flag": "ğŸ‡§ğŸ‡¿",
        "code": "BZ",
        "dial_code": "+501"
    },
    {
        "name": "à¶¶à·™à¶±à·’à¶±à·Š",
        "flag": "ğŸ‡§ğŸ‡¯",
        "code": "BJ",
        "dial_code": "+229"
    },
    {
        "name": "à¶·à·–à¶­à·à¶±à¶º",
        "flag": "ğŸ‡§ğŸ‡¹",
        "code": "BT",
        "dial_code": "+975"
    },
    {
        "name": "à¶¶à·œà¶§à·Šà·ƒà·Šà·€à·à¶±à·",
        "flag": "ğŸ‡§ğŸ‡¼",
        "code": "BW",
        "dial_code": "+267"
    },
    {
        "name": "à¶¶à·Šâ€à¶»à·ƒà·“à¶½à¶º",
        "flag": "ğŸ‡§ğŸ‡·",
        "code": "BR",
        "dial_code": "+55"
    },
    {
        "name": "à¶¶à¶½à·Šà¶œà·šà¶»à·’à¶ºà·à·€",
        "flag": "ğŸ‡§ğŸ‡¬",
        "code": "BG",
        "dial_code": "+359"
    },
    {
        "name": "à¶¶à·”à¶»à·”à¶±à·Šà¶¯à·’ ",
        "flag": "ğŸ‡§ğŸ‡®",
        "code": "BI",
        "dial_code": "+257"
    },
    {
        "name": "à¶šà·à¶±à·Šà¶¶à·œà¶©à·’à¶ºà·",
        "flag": "ğŸ‡°ğŸ‡­",
        "code": "KH",
        "dial_code": "+855"
    },
    {
        "name": "à¶šà·à¶¸à¶»à·–à¶±à·Š",
        "flag": "ğŸ‡¨ğŸ‡²",
        "code": "CM",
        "dial_code": "+237"
    },
    {
        "name": "à¶šà·à¶±à¶©à·à·€ ",
        "flag": "ğŸ‡¨ğŸ‡¦",
        "code": "CA",
        "dial_code": "+1"
    },
    {
        "name": "à¶šà·šà¶´à·Š à·€à¶»à·Šà¶©à·Š",
        "flag": "ğŸ‡¨ğŸ‡»",
        "code": "CV",
        "dial_code": "+238"
    },
    {
        "name": "à¶ à·à¶©à·Š à¶»à·à¶¢à·Šâ€à¶ºà¶º",
        "flag": "ğŸ‡¹ğŸ‡©",
        "code": "TD",
        "dial_code": "+235"
    },
    {
        "name": "à¶ à·’à¶½à·“ ",
        "flag": "ğŸ‡¨ğŸ‡±",
        "code": "CL",
        "dial_code": "+56"
    },
    {
        "name": "à¶ à·“à¶±à¶º ",
        "flag": "ğŸ‡¨ğŸ‡³",
        "code": "CN",
        "dial_code": "+86"
    },
    {
        "name": "à¶šà·œà·…à·œà¶¸à·Šà¶¶à·’à¶ºà·à·€ ",
        "flag": "ğŸ‡¨ğŸ‡´",
        "code": "CO",
        "dial_code": "+57"
    },
    {
        "name": "à¶šà·œà¶¸à¶»à·à·ƒà·Š",
        "flag": "ğŸ‡°ğŸ‡²",
        "code": "KM",
        "dial_code": "+269"
    },
    {
        "name": "à¶šà·œà¶±à·Šà¶œà·",
        "flag": "ğŸ‡¨ğŸ‡¬",
        "code": "CG",
        "dial_code": "+242"
    },
    {
        "name": "à¶šà·œà·ƒà·Šà¶§à·à¶»à·’à¶šà·",
        "flag": "ğŸ‡¨ğŸ‡·",
        "code": "CR",
        "dial_code": "+506"
    },
    {
        "name": "à¶šà·Šâ€à¶»à·œà¶’à·‚à·’à¶ºà·à·€ ",
        "flag": "ğŸ‡­ğŸ‡·",
        "code": "HR",
        "dial_code": "+385"
    },
    {
        "name": "à¶šà·’à¶ºà·”à¶¶à·à·€",
        "flag": "ğŸ‡¨ğŸ‡º",
        "code": "CU",
        "dial_code": "+53"
    },
    {
        "name": "à·ƒà¶ºà·’à¶´à·Šâ€à¶»à·ƒà¶º",
        "flag": "ğŸ‡¨ğŸ‡¾",
        "code": "CY",
        "dial_code": "+357"
    },
    {
        "name": "à¶ à·™à¶šà·Š",
        "flag": "ğŸ‡¨ğŸ‡¿",
        "code": "CZ",
        "dial_code": "+420"
    },
    {
        "name": "à¶©à·™à¶±à·Šà¶¸à·à¶»à·Šà¶šà¶º",
        "flag": "ğŸ‡©ğŸ‡°",
        "code": "DK",
        "dial_code": "+45"
    },
    {
        "name": "à¶¢à·’à¶¶à·”à¶§à·’",
        "flag": "ğŸ‡©ğŸ‡¯",
        "code": "DJ",
        "dial_code": "+253"
    },
    {
        "name": "à¶©à·œà¶¸à·’à¶±à·’à¶šà·",
        "flag": "ğŸ‡©ğŸ‡²",
        "code": "DM",
        "dial_code": "+1767"
    },
    {
        "name": "à¶©à·œà¶¸à·’à¶±à·’à¶šà·à¶±à·” à¶¢à¶±à¶»à¶¢à¶º",
        "flag": "ğŸ‡©ğŸ‡´",
        "code": "DO",
        "dial_code": "+1849"
    },
    {
        "name": "à¶‰à¶šà·Šà·€à¶¯à·à¶»à¶º",
        "flag": "ğŸ‡ªğŸ‡¨",
        "code": "EC",
        "dial_code": "+593"
    },
    {
        "name": "à¶Šà¶¢à·’à¶´à·Šà¶­à·”à·€",
        "flag": "ğŸ‡ªğŸ‡¬",
        "code": "EG",
        "dial_code": "+20"
    },
    {
        "name": "à·ƒà·à¶½à·Šà·€à¶¯à·à¶»à¶º",
        "flag": "ğŸ‡¸ğŸ‡»",
        "code": "SV",
        "dial_code": "+503"
    },
    {
        "name": "à¶œà·’à¶±à·’à¶ºà·à·€",
        "flag": "ğŸ‡¬ğŸ‡¶",
        "code": "GQ",
        "dial_code": "+240"
    },
    {
        "name": "à¶‘à¶»à·’à¶­à·Šâ€à¶»à·’à¶ºà·à·€",
        "flag": "ğŸ‡ªğŸ‡·",
        "code": "ER",
        "dial_code": "+291"
    },
    {
        "name": "à¶‘à·ƒà·Šà¶­à·à¶±à·’à¶ºà·à·€",
        "flag": "ğŸ‡ªğŸ‡ª",
        "code": "EE",
        "dial_code": "+372"
    },
    {
        "name": "à¶‰à¶­à·’à¶ºà·à¶´à·’à¶ºà·à·€",
        "flag": "ğŸ‡ªğŸ‡¹",
        "code": "ET",
        "dial_code": "+251"
    },
    {
        "name": "à·†à·“à¶¢à·’",
        "flag": "ğŸ‡«ğŸ‡¯",
        "code": "FJ",
        "dial_code": "+679"
    },
    {
        "name": "à·†à·’à¶±à·Šà¶½à¶±à·Šà¶­à¶º",
        "flag": "ğŸ‡«ğŸ‡®",
        "code": "FI",
        "dial_code": "+358"
    },
    {
        "name": "à¶´à·Šâ€à¶»à¶‚à·à¶º",
        "flag": "ğŸ‡«ğŸ‡·",
        "code": "FR",
        "dial_code": "+33"
    },
    {
        "name": "à¶œà·à¶¶à·œà¶±à·Š",
        "flag": "ğŸ‡¬ğŸ‡¦",
        "code": "GA",
        "dial_code": "+241"
    },
    {
        "name": "à¶œà·à¶¸à·Šà¶¶à·’à¶ºà·à·€",
        "flag": "ğŸ‡¬ğŸ‡²",
        "code": "GM",
        "dial_code": "+220"
    },
    {
        "name": "à¶¢à·à¶»à·Šà¶¢à·’à¶ºà·à·€",
        "flag": "ğŸ‡¬ğŸ‡ª",
        "code": "GE",
        "dial_code": "+995"
    },
    {
        "name": "à¶¢à¶»à·Šà¶¸à¶±à·’à¶º",
        "flag": "ğŸ‡©ğŸ‡ª",
        "code": "DE",
        "dial_code": "+49"
    },
    {
        "name": "à¶à·à¶±à·",
        "flag": "ğŸ‡¬ğŸ‡­",
        "code": "GH",
        "dial_code": "+233"
    },
    {
        "name": "à¶œà·Šâ€à¶»à·“à·ƒà·’à¶º",
        "flag": "ğŸ‡¬ğŸ‡·",
        "code": "GR",
        "dial_code": "+30"
    },
    {
        "name": "à¶œà·Šâ€à¶»à·™à¶±à¶©à·",
        "flag": "ğŸ‡¬ğŸ‡©",
        "code": "GD",
        "dial_code": "+1473"
    },
    {
        "name": "à¶œà·”à·€à·à¶­à¶¸à·à¶½à·à·€",
        "flag": "ğŸ‡¬ğŸ‡¹",
        "code": "GT",
        "dial_code": "+502"
    },
    {
        "name": "à¶œà·’à¶±à·’à¶ºà·à·€",
        "flag": "ğŸ‡¬ğŸ‡³",
        "code": "GN",
        "dial_code": "+224"
    },
    {
        "name": "à¶œà·’à¶±à·’à¶ºà·-à¶¶à·’à·ƒà·à·€à·”",
        "flag": "ğŸ‡¬ğŸ‡¼",
        "code": "GW",
        "dial_code": "+245"
    },
    {
        "name": "à¶œà¶ºà·à¶±à·",
        "flag": "ğŸ‡¬ğŸ‡¾",
        "code": "GY",
        "dial_code": "+592"
    },
    {
        "name": "à·„à¶ºà·’à¶§à·’",
        "flag": "ğŸ‡­ğŸ‡¹",
        "code": "HT",
        "dial_code": "+509"
    },
    {
        "name": "à·„à·œà¶±à·Šà¶©à·”à¶»à·à·ƒà·Š",
        "flag": "ğŸ‡­ğŸ‡³",
        "code": "HN",
        "dial_code": "+504"
    },
    {
        "name": "à·„à¶‚à¶œà·šà¶»à·’à¶ºà·à·€",
        "flag": "ğŸ‡­ğŸ‡º",
        "code": "HU",
        "dial_code": "+36"
    },
    {
        "name": "à¶…à¶ºà·’à·ƒà·Šà¶½à¶±à·Šà¶­à¶º",
        "flag": "ğŸ‡®ğŸ‡¸",
        "code": "IS",
        "dial_code": "+354"
    },
    {
        "name": "à¶‰à¶±à·Šà¶¯à·’à¶ºà·à·€",
        "flag": "ğŸ‡®ğŸ‡³",
        "code": "IN",
        "dial_code": "+91"
    },
    {
        "name": "à¶‰à¶±à·Šà¶¯à·”à¶±à·“à·ƒà·’à¶ºà·à·€",
        "flag": "ğŸ‡®ğŸ‡©",
        "code": "ID",
        "dial_code": "+62"
    },
    {
        "name": "à¶‰à¶»à·à¶šà¶º",
        "flag": "ğŸ‡®ğŸ‡¶",
        "code": "IQ",
        "dial_code": "+964"
    },
    {
        "name": "à¶Šà·à·Šâ€à¶»à·à¶ºà¶½à¶º",
        "flag": "ğŸ‡®ğŸ‡±",
        "code": "IL",
        "dial_code": "+972"
    },
    {
        "name": "à¶‰à¶­à·à¶½à·’à¶º",
        "flag": "ğŸ‡®ğŸ‡¹",
        "code": "IT",
        "dial_code": "+39"
    },
    {
        "name": "à¶¢à·à¶¸à·™à¶ºà·’à¶šà·à·€",
        "flag": "ğŸ‡¯ğŸ‡²",
        "code": "JM",
        "dial_code": "+1876"
    },
    {
        "name": "à¶¢à¶´à·à¶±à¶º",
        "flag": "ğŸ‡¯ğŸ‡µ",
        "code": "JP",
        "dial_code": "+81"
    },
    {
        "name": "à¶¢à·à¶»à·Šà¶¯à·à¶±à¶º",
        "flag": "ğŸ‡¯ğŸ‡´",
        "code": "JO",
        "dial_code": "+962"
    },
    {
        "name": "à¶šà·ƒà¶šà·ƒà·Šà¶­à·à¶±à¶º",
        "flag": "ğŸ‡°ğŸ‡¿",
        "code": "KZ",
        "dial_code": "+7"
    },
    {
        "name": "à¶šà·™à¶±à·Šà¶ºà·à·€",
        "flag": "ğŸ‡°ğŸ‡ª",
        "code": "KE",
        "dial_code": "+254"
    },
    {
        "name": "à¶šà·’à¶»à·’à¶¶à¶§à·’",
        "flag": "ğŸ‡°ğŸ‡®",
        "code": "KI",
        "dial_code": "+686"
    },
    {
        "name": "à¶šà·œà·ƒà·à·€à·",
        "flag": "ğŸ‡½ğŸ‡°",
        "code": "XK",
        "dial_code": "+383"
    },
    {
        "name": "à¶šà·”à·€à·šà¶§à·Š",
        "flag": "ğŸ‡°ğŸ‡¼",
        "code": "KW",
        "dial_code": "+965"
    },
    {
        "name": "à¶šà·’à¶»à·Šà¶œà·’à·ƒà·Šà¶­à·à¶±à¶º",
        "flag": "ğŸ‡°ğŸ‡¬",
        "code": "KG",
        "dial_code": "+996"
    },
    {
        "name": "à¶½à·à¶•à·ƒà¶º",
        "flag": "ğŸ‡±ğŸ‡¦",
        "code": "LA",
        "dial_code": "+856"
    },
    {
        "name": "à¶½à·à¶§à·Šà·€à·’à¶ºà·à·€",
        "flag": "ğŸ‡±ğŸ‡»",
        "code": "LV",
        "dial_code": "+371"
    },
    {
        "name": "à¶½à·™à¶¶à¶±à¶±à¶º",
        "flag": "ğŸ‡±ğŸ‡§",
        "code": "LB",
        "dial_code": "+961"
    },
    {
        "name": "à¶½à·™à·ƒà·à¶­à·",
        "flag": "ğŸ‡±ğŸ‡¸",
        "code": "LS",
        "dial_code": "+266"
    },
    {
        "name": "à¶½à¶ºà·’à¶¶à·“à¶»à·’à¶ºà·à·€",
        "flag": "ğŸ‡±ğŸ‡·",
        "code": "LR",
        "dial_code": "+231"
    },
    {
        "name": "à¶½à·’à¶ à·Šà¶§à·™à¶±à·Šà·ƒà·Šà¶§à¶ºà·’à¶±à·Š",
        "flag": "ğŸ‡±ğŸ‡®",
        "code": "LI",
        "dial_code": "+423"
    },
    {
        "name": "à¶½à·’à¶­à·”à·€à·šà¶±à·’à¶ºà·",
        "flag": "ğŸ‡±ğŸ‡¹",
        "code": "LT",
        "dial_code": "+370"
    },
    {
        "name": "à¶½à¶šà·Šà·ƒà¶¸à·Šà¶¶à¶»à·Šà¶œà·Š",
        "flag": "ğŸ‡±ğŸ‡º",
        "code": "LU",
        "dial_code": "+352"
    },
    {
        "name": "à¶¸à·à·ƒà·’à¶©à·à¶±à·’à¶ºà·à·€",
        "flag": "ğŸ‡²ğŸ‡°",
        "code": "MK",
        "dial_code": "+389"
    },
    {
        "name": "à¶¸à·à¶©à¶œà·ƒà·Šà¶šà¶»à¶º",
        "flag": "ğŸ‡²ğŸ‡¬",
        "code": "MG",
        "dial_code": "+261"
    },
    {
        "name": "à¶¸à¶½à·à·€à·’",
        "flag": "ğŸ‡²ğŸ‡¼",
        "code": "MW",
        "dial_code": "+265"
    },
    {
        "name": "à¶¸à·à¶½à·šà·ƒà·’à¶ºà·à·€",
        "flag": "ğŸ‡²ğŸ‡¾",
        "code": "MY",
        "dial_code": "+60"
    },
    {
        "name": "à¶¸à·à¶½à¶¯à·’à·€à¶ºà·’à¶±",
        "flag": "ğŸ‡²ğŸ‡»",
        "code": "MV",
        "dial_code": "+960"
    },
    {
        "name": "à¶¸à·à¶½à·’",
        "flag": "ğŸ‡²ğŸ‡±",
        "code": "ML",
        "dial_code": "+223"
    },
    {
        "name": "à¶¸à¶½à·Šà¶½à·à¶§à·",
        "flag": "ğŸ‡²ğŸ‡¹",
        "code": "MT",
        "dial_code": "+356"
    },
    {
        "name": "à¶¸à·à·‚à¶½à·Š à¶¯à·–à¶´à¶­à·Š",
        "flag": "ğŸ‡²ğŸ‡­",
        "code": "MH",
        "dial_code": "+692"
    },
    {
        "name": "à¶¸à·œà¶»à·’à¶§à·šà¶±à·’à¶ºà·à·€",
        "flag": "ğŸ‡²ğŸ‡·",
        "code": "MR",
        "dial_code": "+222"
    },
    {
        "name": "à¶¸à·”à¶»à·”à·ƒà·’à¶º",
        "flag": "ğŸ‡²ğŸ‡º",
        "code": "MU",
        "dial_code": "+230"
    },
    {
        "name": "à¶¸à·™à¶šà·Šà·ƒà·’à¶šà·à·€ ",
        "flag": "ğŸ‡²ğŸ‡½",
        "code": "MX",
        "dial_code": "+52"
    },
    {
        "name": "à¶¸à·œà¶½à·Šà¶©à·à·€ ",
        "flag": "ğŸ‡²ğŸ‡©",
        "code": "MD",
        "dial_code": "+373"
    },
    {
        "name": "à¶¸à·œà¶±à·à¶šà·",
        "flag": "ğŸ‡²ğŸ‡¨",
        "code": "MC",
        "dial_code": "+377"
    },
    {
        "name": "à¶¸à·œà¶±à·Šà¶œà·à¶½à·’à¶ºà·à·€ ",
        "flag": "ğŸ‡²ğŸ‡³",
        "code": "MN",
        "dial_code": "+976"
    },
    {
        "name": "à¶¸à·œà¶±à·Šà¶§à·’à¶±à·’à¶œà·Šà¶»à·",
        "flag": "ğŸ‡²ğŸ‡ª",
        "code": "ME",
        "dial_code": "+382"
    },
    {
        "name": "à¶¸à·œà¶»à·œà¶šà·Šà¶šà·à·€ ",
        "flag": "ğŸ‡²ğŸ‡¦",
        "code": "MA",
        "dial_code": "+212"
    },
    {
        "name": "à¶¸à·œà·ƒà·à¶¸à·Šà¶¶à·’à¶šà·Š",
        "flag": "ğŸ‡²ğŸ‡¿",
        "code": "MZ",
        "dial_code": "+258"
    },
    {
        "name": "à¶±à·à¶¸à·Šà¶¶à·’à¶ºà·à·€ ",
        "flag": "ğŸ‡³ğŸ‡¦",
        "code": "NA",
        "dial_code": "+264"
    },
    {
        "name": "à¶±à·à·€à·”à¶»à·”",
        "flag": "ğŸ‡³ğŸ‡·",
        "code": "NR",
        "dial_code": "+674"
    },
    {
        "name": "à¶±à·šà¶´à·à¶½à¶º ",
        "flag": "ğŸ‡³ğŸ‡µ",
        "code": "NP",
        "dial_code": "+977"
    },
    {
        "name": "à¶±à·™à¶¯à¶»à·Šà¶½à¶±à·Šà¶­à¶º ",
        "flag": "ğŸ‡³ğŸ‡±",
        "code": "NL",
        "dial_code": "+31"
    },
    {
        "name": "à¶±à·€à·ƒà·“à¶½à¶±à·Šà¶­à¶º ",
        "flag": "ğŸ‡³ğŸ‡¿",
        "code": "NZ",
        "dial_code": "+64"
    },
    {
        "name": "à¶±à·’à¶šà¶»à¶œà·”à·€à·à·€",
        "flag": "ğŸ‡³ğŸ‡®",
        "code": "NI",
        "dial_code": "+505"
    },
    {
        "name": "à¶±à¶ºà·’à¶¢à¶»à·Š",
        "flag": "ğŸ‡³ğŸ‡ª",
        "code": "NE",
        "dial_code": "+227"
    },
    {
        "name": "à¶±à¶ºà·’à¶¢à·“à¶»à·’à¶ºà·à·€ ",
        "flag": "ğŸ‡³ğŸ‡¬",
        "code": "NG",
        "dial_code": "+234"
    },
    {
        "name": "à¶±à·œà¶»à·Šà·€à·š ",
        "flag": "ğŸ‡³ğŸ‡´",
        "code": "NO",
        "dial_code": "+47"
    },
    {
        "name": "à¶•à¶¸à·à¶±à¶º ",
        "flag": "ğŸ‡´ğŸ‡²",
        "code": "OM",
        "dial_code": "+968"
    },
    {
        "name": "à¶´à¶šà·’à·ƒà·Šà¶®à·à¶±à¶º",
        "flag": "ğŸ‡µğŸ‡°",
        "code": "PK",
        "dial_code": "+92"
    },
    {
        "name": "à¶´à·à¶½à·€à·Š ",
        "flag": "ğŸ‡µğŸ‡¼",
        "code": "PW",
        "dial_code": "+680"
    },
    {
        "name": "à¶´à·à¶±à¶¸à· ",
        "flag": "ğŸ‡µğŸ‡¦",
        "code": "PA",
        "dial_code": "+507"
    },
    {
        "name": "à¶œà·’à¶±à·’à¶ºà·à·€",
        "flag": "ğŸ‡µğŸ‡¬",
        "code": "PG",
        "dial_code": "+675"
    },
    {
        "name": "à¶´à·à¶»à¶œà·”à·€à·š",
        "flag": "ğŸ‡µğŸ‡¾",
        "code": "PY",
        "dial_code": "+595"
    },
    {
        "name": "à¶´à·šà¶»à·”",
        "flag": "ğŸ‡µğŸ‡ª",
        "code": "PE",
        "dial_code": "+51"
    },
    {
        "name": "à¶´à·’à¶½à·’à¶´à·“à¶±à¶º",
        "flag": "ğŸ‡µğŸ‡­",
        "code": "PH",
        "dial_code": "+63"
    },
    {
        "name": "à¶´à·à¶½à¶±à·Šà¶­à¶º",
        "flag": "ğŸ‡µğŸ‡±",
        "code": "PL",
        "dial_code": "+48"
    },
    {
        "name": "à¶´à·˜à¶­à·”à¶œà·à¶½à¶º",
        "flag": "ğŸ‡µğŸ‡¹",
        "code": "PT",
        "dial_code": "+351"
    },
    {
        "name": "à¶šà¶§à·à¶»à·Š",
        "flag": "ğŸ‡¶ğŸ‡¦",
        "code": "QA",
        "dial_code": "+974"
    },
    {
        "name": "à¶»à·”à¶¸à·šà¶±à·’à¶ºà·à·€",
        "flag": "ğŸ‡·ğŸ‡´",
        "code": "RO",
        "dial_code": "+40"
    },
    {
        "name": "à¶»à·”à·€à¶±à·Šà¶©à·à·€",
        "flag": "ğŸ‡·ğŸ‡¼",
        "code": "RW",
        "dial_code": "+250"
    },
    {
        "name": "à·ƒà·à¶¸à·à·€à·",
        "flag": "ğŸ‡¼ğŸ‡¸",
        "code": "WS",
        "dial_code": "+685"
    },
    {
        "name": "à·ƒà·à¶±à·Š à¶¸à¶»à·’à¶±à·",
        "flag": "ğŸ‡¸ğŸ‡²",
        "code": "SM",
        "dial_code": "+378"
    },
    {
        "name": "à·ƒà·€à·”à¶¯à·’ à¶…à¶»à·à¶¶à·’à¶º",
        "flag": "ğŸ‡¸ğŸ‡¦",
        "code": "SA",
        "dial_code": "+966"
    },
    {
        "name": "à·ƒà·™à¶±à¶œà¶½à·Š",
        "flag": "ğŸ‡¸ğŸ‡³",
        "code": "SN",
        "dial_code": "+221"
    },
    {
        "name": "à·ƒà¶»à·Šà¶¶à·’à¶ºà·à·€",
        "flag": "ğŸ‡·ğŸ‡¸",
        "code": "RS",
        "dial_code": "+381"
    },
    {
        "name": "à·ƒà·“à·‚à·™à¶½à·Šà·ƒà·Š",
        "flag": "ğŸ‡¸ğŸ‡¨",
        "code": "SC",
        "dial_code": "+248"
    },
    {
        "name": "à·ƒà·’à¶ºà·à¶»à· à¶½à·’à¶ºà·œà¶±à·Š",
        "flag": "ğŸ‡¸ğŸ‡±",
        "code": "SL",
        "dial_code": "+232"
    },
    {
        "name": "à·ƒà·’à¶‚à¶œà¶´à·Šà¶´à·–à¶»à·”à·€",
        "flag": "ğŸ‡¸ğŸ‡¬",
        "code": "SG",
        "dial_code": "+65"
    },
    {
        "name": "à·ƒà·Šà¶½à·à·€à·à¶šà·’à¶ºà·à·€ ",
        "flag": "ğŸ‡¸ğŸ‡°",
        "code": "SK",
        "dial_code": "+421"
    },
    {
        "name": "à·ƒà·Šà¶½à·à·€à·šà¶±à·’à¶ºà·à·€ ",
        "flag": "ğŸ‡¸ğŸ‡®",
        "code": "SI",
        "dial_code": "+386"
    },
    {
        "name": "à·ƒà·œà¶½à¶¸à¶±à·Š à¶¯à·–à¶´à¶­à·Š",
        "flag": "ğŸ‡¸ğŸ‡§",
        "code": "SB",
        "dial_code": "+677"
    },
    {
        "name": "à·ƒà·à¶¸à·à¶½à·’à¶ºà·à·€ ",
        "flag": "ğŸ‡¸ğŸ‡´",
        "code": "SO",
        "dial_code": "+252"
    },
    {
        "name": "à¶¯à¶šà·”à¶«à·” à¶…à¶´à·Šâ€à¶»à·’à¶šà·à·€ ",
        "flag": "ğŸ‡¿ğŸ‡¦",
        "code": "ZA",
        "dial_code": "+27"
    },
    {
        "name": "à¶¯à¶šà·”à¶«à·” à·ƒà·”à¶©à·à¶±à¶º",
        "flag": "ğŸ‡¸ğŸ‡¸",
        "code": "SS",
        "dial_code": "+211"
    },
    {
        "name": "à·ƒà·Šà¶´à·à¶¤à·Šà¶¤à¶º",
        "flag": "ğŸ‡ªğŸ‡¸",
        "code": "ES",
        "dial_code": "+34"
    },
    {
        "name": "à·à·Šâ€à¶»à·“ à¶½à¶‚à¶šà·à·€ ",
        "flag": "ğŸ‡±ğŸ‡°",
        "code": "LK",
        "dial_code": "+94"
    },
    {
        "name": "à·ƒà·”à¶©à·à¶±à¶º",
        "flag": "ğŸ‡¸ğŸ‡©",
        "code": "SD",
        "dial_code": "+249"
    },
    {
        "name": "à·ƒà·”à¶»à·’à¶±à·à¶¸à¶º",
        "flag": "ğŸ‡¸ğŸ‡·",
        "code": "SR",
        "dial_code": "+597"
    },
    {
        "name": "à·ƒà·Šà·€à·à·ƒà·’à¶½à¶±à·Šà¶­à¶º",
        "flag": "ğŸ‡¸ğŸ‡¿",
        "code": "SZ",
        "dial_code": "+268"
    },
    {
        "name": "à·ƒà·Šà·€à·“à¶©à¶±à¶º",
        "flag": "ğŸ‡¸ğŸ‡ª",
        "code": "SE",
        "dial_code": "+46"
    },
    {
        "name": "à·ƒà·Šà·€à·’à¶§à·Šà·ƒà¶»à·Šà¶½à¶±à·Šà¶­à¶º",
        "flag": "ğŸ‡¨ğŸ‡­",
        "code": "CH",
        "dial_code": "+41"
    },
    {
        "name": "à¶­à·à¶ºà·’à·€à·à¶±à¶º",
        "flag": "ğŸ‡¹ğŸ‡¼",
        "code": "TW",
        "dial_code": "+886"
    },
    {
        "name": "à¶­à¶¢à·’à¶šà·’à·ƒà·Šà¶®à·à¶±à¶º ",
        "flag": "ğŸ‡¹ğŸ‡¯",
        "code": "TJ",
        "dial_code": "+992"
    },
    {
        "name": "à¶­à·à¶ºà·’à¶½à¶±à·Šà¶­à¶º",
        "flag": "ğŸ‡¹ğŸ‡­",
        "code": "TH",
        "dial_code": "+66"
    },
    {
        "name": "à¶§à·à¶œà· ",
        "flag": "ğŸ‡¹ğŸ‡¬",
        "code": "TG",
        "dial_code": "+228"
    },
    {
        "name": "à¶§à·œà¶‚à¶œà·",
        "flag": "ğŸ‡¹ğŸ‡´",
        "code": "TO",
        "dial_code": "+676"
    },
    {
        "name": "à¶§à·’à¶ºà·”à¶±à·“à·ƒà·’à¶ºà·à·€",
        "flag": "ğŸ‡¹ğŸ‡³",
        "code": "TN",
        "dial_code": "+216"
    },
    {
        "name": "à¶­à·”à¶»à·Šà¶šà·’à¶º ",
        "flag": "ğŸ‡¹ğŸ‡·",
        "code": "TR",
        "dial_code": "+90"
    },
    {
        "name": "à¶§à¶»à·Šà¶šà·Šà¶¸à·™à¶±à·’à·ƒà·Šà¶­à·à¶±à¶º",
        "flag": "ğŸ‡¹ğŸ‡²",
        "code": "TM",
        "dial_code": "+993"
    },
    {
        "name": "à¶§à·”à·€à·à¶½à·”",
        "flag": "ğŸ‡¹ğŸ‡»",
        "code": "TV",
        "dial_code": "+688"
    },
    {
        "name": "à¶‹à¶œà¶±à·Šà¶©à·à·€",
        "flag": "ğŸ‡ºğŸ‡¬",
        "code": "UG",
        "dial_code": "+256"
    },
    {
        "name": "à¶ºà·”à¶šà·Šà¶»à·šà¶±à¶º",
        "flag": "ğŸ‡ºğŸ‡¦",
        "code": "UA",
        "dial_code": "+380"
    },
    {
        "name": "à¶‘à¶šà·Šà·ƒà¶­à·Š à¶…à¶»à·à¶¶à·’ à¶‘à¶¸à·“à¶»à·Š",
        "flag": "ğŸ‡¦ğŸ‡ª",
        "code": "AE",
        "dial_code": "+971"
    },
    {
        "name": "à¶»à·à¶¢à·Šâ€à¶ºà¶º à¶‘à¶šà·Šà·ƒà¶­à·Š à¶»à·à¶¢à¶°à·à¶±à·’à¶º",
        "flag": "ğŸ‡¬ğŸ‡§",
        "code": "GB",
        "dial_code": "+44"
    },
    {
        "name": "à¶‘à¶šà·Šà·ƒà¶­à·Š à¶¢à¶±à¶´à¶¯à¶º",
        "flag": "ğŸ‡ºğŸ‡¸",
        "code": "US",
        "dial_code": "+1"
    },
    {
        "name": "à¶‹à¶»à·”à¶œà·”à·€à·š",
        "flag": "ğŸ‡ºğŸ‡¾",
        "code": "UY",
        "dial_code": "+598"
    },
    {
        "name": "à¶‹à·ƒà·Šà¶¶à·™à¶šà·’à·ƒà·Šà¶­à·à¶±à¶º",
        "flag": "ğŸ‡ºğŸ‡¿",
        "code": "UZ",
        "dial_code": "+998"
    },
    {
        "name": "à·€à¶±à·”à·€à·à¶§à·”",
        "flag": "ğŸ‡»ğŸ‡º",
        "code": "VU",
        "dial_code": "+678"
    },
    {
        "name": "à·€à·’à¶ºà¶§à·Šà¶±à·à¶¸à¶º",
        "flag": "ğŸ‡»ğŸ‡³",
        "code": "VN",
        "dial_code": "+84"
    },
    {
        "name": "à¶ºà·šà¶¸à¶±à¶º",
        "flag": "ğŸ‡¾ğŸ‡ª",
        "code": "YE",
        "dial_code": "+967"
    },
    {
        "name": "à·ƒà·à¶¸à·Šà¶¶à·’à¶ºà·à·€",
        "flag": "ğŸ‡¿ğŸ‡²",
        "code": "ZM",
        "dial_code": "+260"
    },
    {
        "name": "à·ƒà·’à¶¸à·Šà¶¶à·à¶¶à·Šà·€à·š",
        "flag": "ğŸ‡¿ğŸ‡¼",
        "code": "ZW",
        "dial_code": "+263"
    },
    {
        "name": "Iran",
        "flag": null,
        "code": null,
        "dial_code": null
    },
    {
        "name": "Ireland {Republic}",
        "flag": null,
        "code": null,
        "dial_code": null
    },
    {
        "name": "St Kitts & Nevis",
        "flag": null,
        "code": null,
        "dial_code": null
    },
    {
        "name": "Ivory Coast",
        "flag": null,
        "code": null,
        "dial_code": null
    },
    {
        "name": "Micronesia",
        "flag": null,
        "code": null,
        "dial_code": null
    },
    {
        "name": "Tanzania",
        "flag": null,
        "code": null,
        "dial_code": null
    },
    {
        "name": "Congo {Democratic Rep}",
        "flag": null,
        "code": null,
        "dial_code": null
    },
    {
        "name": "Sao Tome & Principe",
        "flag": null,
        "code": null,
        "dial_code": null
    },
    {
        "name": "Burkina",
        "flag": null,
        "code": null,
        "dial_code": null
    },
    {
        "name": "Brunei",
        "flag": null,
        "code": null,
        "dial_code": null
    },
    {
        "name": "St Lucia",
        "flag": null,
        "code": null,
        "dial_code": null
    },
    {
        "name": "Bolivia",
        "flag": null,
        "code": null,
        "dial_code": null
    },
    {
        "name": "East Timor",
        "flag": null,
        "code": null,
        "dial_code": null
    },
    {
        "name": "Vatican City",
        "flag": null,
        "code": null,
        "dial_code": null
    },
    {
        "name": "Korea North",
        "flag": null,
        "code": null,
        "dial_code": null
    },
    {
        "name": "Myanmar, {Burma}",
        "flag": null,
        "code": null,
        "dial_code": null
    },
    {
        "name": "Syria",
        "flag": null,
        "code": null,
        "dial_code": null
    },
    {
        "name": "Bosnia Herzegovina",
        "flag": null,
        "code": null,
        "dial_code": null
    },
    {
        "name": "Libya",
        "flag": null,
        "code": null,
        "dial_code": null
    },
    {
        "name": "Antigua & Deps",
        "flag": null,
        "code": null,
        "dial_code": null
    },
    {
        "name": "Saint Vincent & the Grenadines",
        "flag": null,
        "code": null,
        "dial_code": null
    },
    {
        "name": "Trinidad & Tobago",
        "flag": null,
        "code": null,
        "dial_code": null
    },
    {
        "name": "Russian Federation",
        "flag": null,
        "code": null,
        "dial_code": null
    },
    {
        "name": "Venezuela",
        "flag": null,
        "code": null,
        "dial_code": null
    },
    {
        "name": "Korea South",
        "flag": null,
        "code": null,
        "dial_code": null
    },
    {
        "name": "Central African Rep",
        "flag": null,
        "code": null,
        "dial_code": null
    }
]